ONEWEB-0327             
1 49196U 21083L   24080.64885032  .00000037  00000+0  60348-4 0  9997
2 49196  87.9185 138.4064 0002459  99.3142 260.8268 13.18683932123421
ONEWEB-0328             
1 49197U 21083M   24080.84553231 -.00000181  00000+0 -53163-3 0  9991
2 49197  87.8917 123.1469 0002036 102.3561 257.7796 13.13471510124766
ONEWEB-0331             
1 49198U 21083N   24080.59272891 -.00000278  00000+0 -73878-3 0  9996
2 49198  87.9186 138.3987 0002182 103.8602 256.2773 13.18685199122125
ONEWEB-0333             
1 49199U 21083P   24080.53606637 -.00000163  00000+0 -48104-3 0  9997
2 49199  87.8930 123.2254 0001876  93.5697 266.5647 13.13472050123445
ONEWEB-0334             
1 49200U 21083Q   24080.48308164  .00000074  00000+0  14903-3 0  9997
2 49200  87.9125  77.4075 0001829  62.9473 297.1846 13.20773504128729
ONEWEB-0335             
1 49201U 21083R   24080.68365525 -.00000249  00000+0 -71634-3 0  9994
2 49201  87.8929 123.1844 0001957 102.0325 258.1023 13.13469843124762
ONEWEB-0336             
1 49202U 21083S   24080.57733044  .00000297  00000+0  77755-3 0  9999
2 49202  87.8930 123.2032 0001986  92.0014 268.1343 13.13468963123453
ONEWEB-0337             
1 49203U 21083T   24080.66289050  .00000082  00000+0  18856-3 0  9992
2 49203  87.8931 123.1844 0001982 101.4934 258.6417 13.13468849124761
